{
  "type": "FeatureCollection",
  "features": [
    {
      "type": "Feature",
      "properties": {
        "norad_id": 40730,
        "name": "GPS BIIF-10 (PRN 08)",
        "group": "gps-ops",
        "lat": -31.236423189335852,
        "lon": -111.61656167956792,
        "alt_km": 20066.17621901254,
        "timestamp": "2025-12-22T04:03:39.428114+00:00",
        "meta_object_name": "GPS BIIF-10 (PRN 08)",
        "meta_object_id": "2015-033A",
        "meta_epoch": "2025-12-21T17:23:51.615744",
        "meta_mean_motion": 2.00565211,
        "meta_eccentricity": 0.0111478,
        "meta_inclination": 54.1229,
        "meta_ra_of_asc_node": 274.4032,
        "meta_arg_of_pericenter": 27.0282,
        "meta_mean_anomaly": 333.5929,
        "meta_ephemeris_type": 0,
        "meta_classification_type": "U",
        "meta_norad_cat_id": 40730,
        "meta_element_set_no": 999,
        "meta_rev_at_epoch": 7643,
        "meta_bstar": 0,
        "meta_mean_motion_dot": -1.3e-07,
        "meta_mean_motion_ddot": 0,
        "tle_line1": "1 40730U 15033A   25355.72490296 -.00000013  00000+0  00000+0 0  9998",
        "tle_line2": "2 40730  54.1229 274.4032 0111478  27.0282 333.5929  2.00565211 76430"
      },
      "geometry": {
        "type": "Point",
        "coordinates": [
          -111.61656167956792,
          -31.236423189335852
        ]
      }
    },
    {
      "type": "Feature",
      "properties": {
        "norad_id": 41019,
        "name": "GPS BIIF-11 (PRN 10)",
        "group": "gps-ops",
        "lat": -56.0113977957869,
        "lon": -38.09459130777896,
        "alt_km": 19987.08302144059,
        "timestamp": "2025-12-22T04:03:39.428125+00:00",
        "meta_object_name": "GPS BIIF-11 (PRN 10)",
        "meta_object_id": "2015-062A",
        "meta_epoch": "2025-12-20T06:55:31.863072",
        "meta_mean_motion": 2.00567218,
        "meta_eccentricity": 0.0111019,
        "meta_inclination": 56.8376,
        "meta_ra_of_asc_node": 37.7103,
        "meta_arg_of_pericenter": 230.1421,
        "meta_mean_anomaly": 128.9419,
        "meta_ephemeris_type": 0,
        "meta_classification_type": "U",
        "meta_norad_cat_id": 41019,
        "meta_element_set_no": 999,
        "meta_rev_at_epoch": 7424,
        "meta_bstar": 0,
        "meta_mean_motion_dot": -5.7e-07,
        "meta_mean_motion_ddot": 0,
        "tle_line1": "1 41019U 15062A   25354.28856323 -.00000057  00000+0  00000+0 0  9996",
        "tle_line2": "2 41019  56.8376  37.7103 0111019 230.1421 128.9419  2.00567218 74241"
      },
      "geometry": {
        "type": "Point",
        "coordinates": [
          -38.09459130777896,
          -56.0113977957869
        ]
      }
    },
    {
      "type": "Feature",
      "properties": {
        "norad_id": 41328,
        "name": "GPS BIIF-12 (PRN 32)",
        "group": "gps-ops",
        "lat": -29.56052044616304,
        "lon": -60.511796476497345,
        "alt_km": 19966.726712497788,
        "timestamp": "2025-12-22T04:03:39.428137+00:00",
        "meta_object_name": "GPS BIIF-12 (PRN 32)",
        "meta_object_id": "2016-007A",
        "meta_epoch": "2025-12-21T08:50:32.363232",
        "meta_mean_motion": 2.00560305,
        "meta_eccentricity": 0.00925842,
        "meta_inclination": 55.4109,
        "meta_ra_of_asc_node": 96.5146,
        "meta_arg_of_pericenter": 243.788,
        "meta_mean_anomaly": 115.2562,
        "meta_ephemeris_type": 0,
        "meta_classification_type": "U",
        "meta_norad_cat_id": 41328,
        "meta_element_set_no": 999,
        "meta_rev_at_epoch": 7227,
        "meta_bstar": 0,
        "meta_mean_motion_dot": -8e-08,
        "meta_mean_motion_ddot": 0,
        "tle_line1": "1 41328U 16007A   25355.36843013 -.00000008  00000+0  00000+0 0  9997",
        "tle_line2": "2 41328  55.4109  96.5146 0092584 243.7880 115.2562  2.00560305 72276"
      },
      "geometry": {
        "type": "Point",
        "coordinates": [
          -60.511796476497345,
          -29.56052044616304
        ]
      }
    },
    {
      "type": "Feature",
      "properties": {
        "norad_id": 43873,
        "name": "GPS BIII-1  (PRN 04)",
        "group": "gps-ops",
        "lat": 50.26161925370688,
        "lon": -136.29182205690702,
        "alt_km": 20166.48087244699,
        "timestamp": "2025-12-22T04:03:39.428153+00:00",
        "meta_object_name": "GPS BIII-1  (PRN 04)",
        "meta_object_id": "2018-109A",
        "meta_epoch": "2025-12-20T14:49:36.231744",
        "meta_mean_motion": 2.00553966,
        "meta_eccentricity": 0.0037575,
        "meta_inclination": 55.571,
        "meta_ra_of_asc_node": 99.2363,
        "meta_arg_of_pericenter": 195.36,
        "meta_mean_anomaly": 236.122,
        "meta_ephemeris_type": 0,
        "meta_classification_type": "U",
        "meta_norad_cat_id": 43873,
        "meta_element_set_no": 999,
        "meta_rev_at_epoch": 5149,
        "meta_bstar": 0,
        "meta_mean_motion_dot": -1.2e-07,
        "meta_mean_motion_ddot": 0,
        "tle_line1": "1 43873U 18109A   25354.61778046 -.00000012  00000+0  00000+0 0  9994",
        "tle_line2": "2 43873  55.5710  99.2363 0037575 195.3600 236.1220  2.00553966 51494"
      },
      "geometry": {
        "type": "Point",
        "coordinates": [
          -136.29182205690702,
          50.26161925370688
        ]
      }
    },
    {
      "type": "Feature",
      "properties": {
        "norad_id": 44506,
        "name": "GPS BIII-2  (PRN 18)",
        "group": "gps-ops",
        "lat": 7.515816654266843,
        "lon": -16.673192901473957,
        "alt_km": 20332.142676705123,
        "timestamp": "2025-12-22T04:03:39.428165+00:00",
        "meta_object_name": "GPS BIII-2  (PRN 18)",
        "meta_object_id": "2019-056A",
        "meta_epoch": "2025-12-21T09:31:28.987392",
        "meta_mean_motion": 2.00566631,
        "meta_eccentricity": 0.00577334,
        "meta_inclination": 55.7184,
        "meta_ra_of_asc_node": 338.2094,
        "meta_arg_of_pericenter": 198.5612,
        "meta_mean_anomaly": 332.7674,
        "meta_ephemeris_type": 0,
        "meta_classification_type": "U",
        "meta_norad_cat_id": 44506,
        "meta_element_set_no": 999,
        "meta_rev_at_epoch": 4650,
        "meta_bstar": 0,
        "meta_mean_motion_dot": -7.2e-07,
        "meta_mean_motion_ddot": 0,
        "tle_line1": "1 44506U 19056A   25355.39686328 -.00000072  00000+0  00000+0 0  9993",
        "tle_line2": "2 44506  55.7184 338.2094 0057733 198.5612 332.7674  2.00566631 46503"
      },
      "geometry": {
        "type": "Point",
        "coordinates": [
          -16.673192901473957,
          7.515816654266843
        ]
      }
    },
    {
      "type": "Feature",
      "properties": {
        "norad_id": 45854,
        "name": "GPS BIII-3  (PRN 23)",
        "group": "gps-ops",
        "lat": -37.24091059593586,
        "lon": 5.69169687253763,
        "alt_km": 20240.25467558931,
        "timestamp": "2025-12-22T04:03:39.428177+00:00",
        "meta_object_name": "GPS BIII-3  (PRN 23)",
        "meta_object_id": "2020-041A",
        "meta_epoch": "2025-12-20T05:44:36.632832",
        "meta_mean_motion": 2.00561934,
        "meta_eccentricity": 0.00606224,
        "meta_inclination": 56.5518,
        "meta_ra_of_asc_node": 35.8938,
        "meta_arg_of_pericenter": 203.675,
        "meta_mean_anomaly": 155.7759,
        "meta_ephemeris_type": 0,
        "meta_classification_type": "U",
        "meta_norad_cat_id": 45854,
        "meta_element_set_no": 999,
        "meta_rev_at_epoch": 4044,
        "meta_bstar": 0,
        "meta_mean_motion_dot": -5.8e-07,
        "meta_mean_motion_ddot": 0,
        "tle_line1": "1 45854U 20041A   25354.23931288 -.00000058  00000+0  00000+0 0  9990",
        "tle_line2": "2 45854  56.5518  35.8938 0060622 203.6750 155.7759  2.00561934 40444"
      },
      "geometry": {
        "type": "Point",
        "coordinates": [
          5.69169687253763,
          -37.24091059593586
        ]
      }
    },
    {
      "type": "Feature",
      "properties": {
        "norad_id": 46826,
        "name": "GPS BIII-4  (PRN 14)",
        "group": "gps-ops",
        "lat": -51.45525272240228,
        "lon": 152.19340462641912,
        "alt_km": 20160.10235108703,
        "timestamp": "2025-12-22T04:03:39.428189+00:00",
        "meta_object_name": "GPS BIII-4  (PRN 14)",
        "meta_object_id": "2020-078A",
        "meta_epoch": "2025-12-16T01:06:13.902336",
        "meta_mean_motion": 2.00566891,
        "meta_eccentricity": 0.0064755,
        "meta_inclination": 54.0145,
        "meta_ra_of_asc_node": 218.2068,
        "meta_arg_of_pericenter": 203.3828,
        "meta_mean_anomaly": 339.3936,
        "meta_ephemeris_type": 0,
        "meta_classification_type": "U",
        "meta_norad_cat_id": 46826,
        "meta_element_set_no": 999,
        "meta_rev_at_epoch": 3783,
        "meta_bstar": 0,
        "meta_mean_motion_dot": 6.7e-07,
        "meta_mean_motion_ddot": 0,
        "tle_line1": "1 46826U 20078A   25350.04599424  .00000067  00000+0  00000+0 0  9996",
        "tle_line2": "2 46826  54.0145 218.2068 0064755 203.3828 339.3936  2.00566891 37831"
      },
      "geometry": {
        "type": "Point",
        "coordinates": [
          152.19340462641912,
          -51.45525272240228
        ]
      }
    }
  ]
}